CCSDS_OMM_VERS = 2.0
CREATION_DATE  = 
ORIGINATOR     = 

OBJECT_NAME    = STARLINK-36792
OBJECT_ID      = 2026-032H
CENTER_NAME    = EARTH
REF_FRAME      = TEME
TIME_SYSTEM    = UTC
MEAN_ELEMENT_THEORY = SGP/SGP4

EPOCH          = 2026-02-27T21:41:21.556608
MEAN_MOTION    = 15.80656203
ECCENTRICITY   = .00018002
INCLINATION    = 97.2807
RA_OF_ASC_NODE = 244.9169
ARG_OF_PERICENTER = 310.7799
MEAN_ANOMALY   = 49.3313

EPHEMERIS_TYPE = 0
CLASSIFICATION_TYPE = U
NORAD_CAT_ID   = 67804
ELEMENT_SET_NO = 999
REV_AT_EPOCH   = 324
BSTAR          = .33321534E-3
MEAN_MOTION_DOT = .63688E-3
MEAN_MOTION_DDOT = 0

CCSDS_OMM_VERS = 2.0
CREATION_DATE  = 
ORIGINATOR     = 

OBJECT_NAME    = STARLINK-36782
OBJECT_ID      = 2026-032J
CENTER_NAME    = EARTH
REF_FRAME      = TEME
TIME_SYSTEM    = UTC
MEAN_ELEMENT_THEORY = SGP/SGP4

EPOCH          = 2026-02-27T18:37:49.185408
MEAN_MOTION    = 15.81007105
ECCENTRICITY   = .00018701
INCLINATION    = 97.2813
RA_OF_ASC_NODE = 244.7843
ARG_OF_PERICENTER = 118.5103
MEAN_ANOMALY   = 241.6354

EPHEMERIS_TYPE = 0
CLASSIFICATION_TYPE = U
NORAD_CAT_ID   = 67805
ELEMENT_SET_NO = 999
REV_AT_EPOCH   = 322
BSTAR          = .19461957E-2
MEAN_MOTION_DOT = .39337E-2
MEAN_MOTION_DDOT = 0

CCSDS_OMM_VERS = 2.0
CREATION_DATE  = 
ORIGINATOR     = 

OBJECT_NAME    = STARLINK-36389
OBJECT_ID      = 2026-032K
CENTER_NAME    = EARTH
REF_FRAME      = TEME
TIME_SYSTEM    = UTC
MEAN_ELEMENT_THEORY = SGP/SGP4

EPOCH          = 2026-02-27T08:00:01.999872
MEAN_MOTION    = 15.80808294
ECCENTRICITY   = .00012274
INCLINATION    = 97.2846
RA_OF_ASC_NODE = 244.3199
ARG_OF_PERICENTER = 81.6732
MEAN_ANOMALY   = 286.2443

EPHEMERIS_TYPE = 0
CLASSIFICATION_TYPE = U
NORAD_CAT_ID   = 67806
ELEMENT_SET_NO = 999
REV_AT_EPOCH   = 311
BSTAR          = .18296732E-3
MEAN_MOTION_DOT = .35033E-3
MEAN_MOTION_DDOT = 0

CCSDS_OMM_VERS = 2.0
CREATION_DATE  = 
ORIGINATOR     = 

OBJECT_NAME    = STARLINK-36382
OBJECT_ID      = 2026-032L
CENTER_NAME    = EARTH
REF_FRAME      = TEME
TIME_SYSTEM    = UTC
MEAN_ELEMENT_THEORY = SGP/SGP4

EPOCH          = 2026-02-27T09:27:50.004000
MEAN_MOTION    = 15.80873818
ECCENTRICITY   = .00024258
INCLINATION    = 97.2865
RA_OF_ASC_NODE = 244.3874
ARG_OF_PERICENTER = 97.9270
MEAN_ANOMALY   = 262.2274

EPHEMERIS_TYPE = 0
CLASSIFICATION_TYPE = U
NORAD_CAT_ID   = 67807
ELEMENT_SET_NO = 999
REV_AT_EPOCH   = 316
BSTAR          = .14815068E-2
MEAN_MOTION_DOT = .294203E-2
MEAN_MOTION_DDOT = 0

CCSDS_OMM_VERS = 2.0
CREATION_DATE  = 
ORIGINATOR     = 

OBJECT_NAME    = STARLINK-36811
OBJECT_ID      = 2026-032M
CENTER_NAME    = EARTH
REF_FRAME      = TEME
TIME_SYSTEM    = UTC
MEAN_ELEMENT_THEORY = SGP/SGP4

EPOCH          = 2026-02-27T21:35:21.384384
MEAN_MOTION    = 15.80962477
ECCENTRICITY   = .00003525
INCLINATION    = 97.2829
RA_OF_ASC_NODE = 244.9230
ARG_OF_PERICENTER = 46.1379
MEAN_ANOMALY   = 313.9918

EPHEMERIS_TYPE = 0
CLASSIFICATION_TYPE = U
NORAD_CAT_ID   = 67808
ELEMENT_SET_NO = 999
REV_AT_EPOCH   = 324
BSTAR          = .16807595E-2
MEAN_MOTION_DOT = .336817E-2
MEAN_MOTION_DDOT = 0

CCSDS_OMM_VERS = 2.0
CREATION_DATE  = 
ORIGINATOR     = 

OBJECT_NAME    = STARLINK-36795
OBJECT_ID      = 2026-032N
CENTER_NAME    = EARTH
REF_FRAME      = TEME
TIME_SYSTEM    = UTC
MEAN_ELEMENT_THEORY = SGP/SGP4

EPOCH          = 2026-02-27T21:33:44.514432
MEAN_MOTION    = 15.81062968
ECCENTRICITY   = .0000549
INCLINATION    = 97.2842
RA_OF_ASC_NODE = 244.9254
ARG_OF_PERICENTER = 15.7599
MEAN_ANOMALY   = 344.3686

EPHEMERIS_TYPE = 0
CLASSIFICATION_TYPE = U
NORAD_CAT_ID   = 67809
ELEMENT_SET_NO = 999
REV_AT_EPOCH   = 324
BSTAR          = .3043563E-2
MEAN_MOTION_DOT = .634524E-2
MEAN_MOTION_DDOT = 0

CCSDS_OMM_VERS = 2.0
CREATION_DATE  = 
ORIGINATOR     = 

OBJECT_NAME    = STARLINK-36807
OBJECT_ID      = 2026-032P
CENTER_NAME    = EARTH
REF_FRAME      = TEME
TIME_SYSTEM    = UTC
MEAN_ELEMENT_THEORY = SGP/SGP4

EPOCH          = 2026-02-27T23:03:33.899328
MEAN_MOTION    = 15.80851002
ECCENTRICITY   = .0004371
INCLINATION    = 97.2834
RA_OF_ASC_NODE = 244.9927
ARG_OF_PERICENTER = 61.6192
MEAN_ANOMALY   = 298.5517

EPHEMERIS_TYPE = 0
CLASSIFICATION_TYPE = U
NORAD_CAT_ID   = 67810
ELEMENT_SET_NO = 999
REV_AT_EPOCH   = 325
BSTAR          = .14883363E-2
MEAN_MOTION_DOT = .295369E-2
MEAN_MOTION_DDOT = 0

CCSDS_OMM_VERS = 2.0
CREATION_DATE  = 
ORIGINATOR     = 

OBJECT_NAME    = STARLINK-36733
OBJECT_ID      = 2026-032Q
CENTER_NAME    = EARTH
REF_FRAME      = TEME
TIME_SYSTEM    = UTC
MEAN_ELEMENT_THEORY = SGP/SGP4

EPOCH          = 2026-02-27T23:01:46.156800
MEAN_MOTION    = 15.80882273
ECCENTRICITY   = .00019548
INCLINATION    = 97.2832
RA_OF_ASC_NODE = 244.9941
ARG_OF_PERICENTER = 71.4964
MEAN_ANOMALY   = 288.6517

EPHEMERIS_TYPE = 0
CLASSIFICATION_TYPE = U
NORAD_CAT_ID   = 67811
ELEMENT_SET_NO = 999
REV_AT_EPOCH   = 325
BSTAR          = .17171481E-2
MEAN_MOTION_DOT = .343081E-2
MEAN_MOTION_DDOT = 0

CCSDS_OMM_VERS = 2.0
CREATION_DATE  = 
ORIGINATOR     = 

OBJECT_NAME    = STARLINK-36377
OBJECT_ID      = 2026-032R
CENTER_NAME    = EARTH
REF_FRAME      = TEME
TIME_SYSTEM    = UTC
MEAN_ELEMENT_THEORY = SGP/SGP4

EPOCH          = 2026-02-27T22:57:11.872224
MEAN_MOTION    = 15.80908811
ECCENTRICITY   = .0001576
INCLINATION    = 97.2831
RA_OF_ASC_NODE = 244.9991
ARG_OF_PERICENTER = 51.7884
MEAN_ANOMALY   = 308.3526

EPHEMERIS_TYPE = 0
CLASSIFICATION_TYPE = U
NORAD_CAT_ID   = 67812
ELEMENT_SET_NO = 999
REV_AT_EPOCH   = 325
BSTAR          = .17227966E-2
MEAN_MOTION_DOT = .344691E-2
MEAN_MOTION_DDOT = 0

CCSDS_OMM_VERS = 2.0
CREATION_DATE  = 
ORIGINATOR     = 

OBJECT_NAME    = STARLINK-36732
OBJECT_ID      = 2026-032S
CENTER_NAME    = EARTH
REF_FRAME      = TEME
TIME_SYSTEM    = UTC
MEAN_ELEMENT_THEORY = SGP/SGP4

EPOCH          = 2026-02-27T22:58:36.259104
MEAN_MOTION    = 15.80852670
ECCENTRICITY   = .00036132
INCLINATION    = 97.2830
RA_OF_ASC_NODE = 244.9961
ARG_OF_PERICENTER = 73.0400
MEAN_ANOMALY   = 287.1264

EPHEMERIS_TYPE = 0
CLASSIFICATION_TYPE = U
NORAD_CAT_ID   = 67813
ELEMENT_SET_NO = 999
REV_AT_EPOCH   = 325
BSTAR          = .11985708E-2
MEAN_MOTION_DOT = .236209E-2
MEAN_MOTION_DDOT = 0

CCSDS_OMM_VERS = 2.0
CREATION_DATE  = 
ORIGINATOR     = 

OBJECT_NAME    = STARLINK-36767
OBJECT_ID      = 2026-032T
CENTER_NAME    = EARTH
REF_FRAME      = TEME
TIME_SYSTEM    = UTC
MEAN_ELEMENT_THEORY = SGP/SGP4

EPOCH          = 2026-02-27T22:59:56.897088
MEAN_MOTION    = 15.80908168
ECCENTRICITY   = .00017766
INCLINATION    = 97.2830
RA_OF_ASC_NODE = 244.9952
ARG_OF_PERICENTER = 62.1590
MEAN_ANOMALY   = 297.9858

EPHEMERIS_TYPE = 0
CLASSIFICATION_TYPE = U
NORAD_CAT_ID   = 67814
ELEMENT_SET_NO = 999
REV_AT_EPOCH   = 325
BSTAR          = .134366E-2
MEAN_MOTION_DOT = .266367E-2
MEAN_MOTION_DDOT = 0

CCSDS_OMM_VERS = 2.0
CREATION_DATE  = 
ORIGINATOR     = 

OBJECT_NAME    = STARLINK-36797
OBJECT_ID      = 2026-032U
CENTER_NAME    = EARTH
REF_FRAME      = TEME
TIME_SYSTEM    = UTC
MEAN_ELEMENT_THEORY = SGP/SGP4

EPOCH          = 2026-02-27T22:55:26.536800
MEAN_MOTION    = 15.80901425
ECCENTRICITY   = .00023702
INCLINATION    = 97.2826
RA_OF_ASC_NODE = 244.9998
ARG_OF_PERICENTER = 66.1305
MEAN_ANOMALY   = 294.0212

EPHEMERIS_TYPE = 0
CLASSIFICATION_TYPE = U
NORAD_CAT_ID   = 67815
ELEMENT_SET_NO = 999
REV_AT_EPOCH   = 325
BSTAR          = .20571624E-2
MEAN_MOTION_DOT = .414843E-2
MEAN_MOTION_DDOT = 0

