STARLINK-36792          
1 67804U 26032H   26058.90372172  .00063688  00000+0  33322-3 0  9996
2 67804  97.2807 244.9169 0001800 310.7799  49.3313 15.80656203  3248
STARLINK-36782          
1 67805U 26032J   26058.77626372  .00393370  00000+0  19462-2 0  9998
2 67805  97.2813 244.7843 0001870 118.5103 241.6354 15.81007105  3225
STARLINK-36389          
1 67806U 26032K   26058.33335648  .00035033  00000+0  18297-3 0  9999
2 67806  97.2846 244.3199 0001227  81.6732 286.2443 15.80808294  3115
STARLINK-36382          
1 67807U 26032L   26058.39432875  .00294203  00000+0  14815-2 0  9993
2 67807  97.2865 244.3874 0002425  97.9270 262.2274 15.80873818  3160
STARLINK-36811          
1 67808U 26032M   26058.89955306  .00336817  00000+0  16808-2 0  9990
2 67808  97.2829 244.9230 0000352  46.1379 313.9918 15.80962477  3244
STARLINK-36795          
1 67809U 26032N   26058.89843188  .00634524  00000+0  30436-2 0  9994
2 67809  97.2842 244.9254 0000549  15.7599 344.3686 15.81062968  3247
STARLINK-36807          
1 67810U 26032P   26058.96080902  .00295369  00000+0  14883-2 0  9999
2 67810  97.2834 244.9927 0004371  61.6192 298.5517 15.80851002  3251
STARLINK-36733          
1 67811U 26032Q   26058.95956200  .00343081  00000+0  17171-2 0  9990
2 67811  97.2832 244.9941 0001954  71.4964 288.6517 15.80882273  3250
STARLINK-36377          
1 67812U 26032R   26058.95638741  .00344691  00000+0  17228-2 0  9999
2 67812  97.2831 244.9991 0001576  51.7884 308.3526 15.80908811  3254
STARLINK-36732          
1 67813U 26032S   26058.95736411  .00236209  00000+0  11986-2 0  9993
2 67813  97.2830 244.9961 0003613  73.0400 287.1264 15.80852670  3250
STARLINK-36767          
1 67814U 26032T   26058.95829742  .00266367  00000+0  13437-2 0  9995
2 67814  97.2830 244.9952 0001776  62.1590 297.9858 15.80908168  3250
STARLINK-36797          
1 67815U 26032U   26058.95516825  .00414843  00000+0  20572-2 0  9993
2 67815  97.2826 244.9998 0002370  66.1305 294.0212 15.80901425  3256
